QIANFAN-105             
1 66047U 25233Q   25362.79002410  .00000232  00000+0  17612-3 0  9995
2 66047  88.9951  60.3833 0014981 359.7910   0.3254 13.90521882 10223
QIANFAN-106             
1 66048U 25233R   25362.60544951  .00000042  00000+0  40746-4 0  9991
2 66048  88.9941  60.4700 0014669 354.5304   5.5689 13.59659580 10153
QIANFAN-107             
1 66049U 25233S   25362.46472223  .00000034  00000+0  29802-4 0  9999
2 66049  88.9950  60.4990 0015646   0.7006 359.4169 13.59757425 10139
QIANFAN-108             
1 66050U 25233T   25362.89256521  .00000037  00000+0  31822-4 0  9997
2 66050  88.9944  60.4509 0014710   1.9936 358.1278 13.63249839 10199
